NORAD_CAT_ID,OBJECT_NAME,OBJECT_TYPE,EPOCH,MEAN_MOTION,ECCENTRICITY,INCLINATION,RA_OF_ASC_NODE,ARG_OF_PERICENTER,MEAN_ANOMALY,BSTAR,MEAN_MOTION_DOT,MEAN_MOTION_DDOT,TLE_LINE0,TLE_LINE1,TLE_LINE2,SEMIMAJOR_AXIS,PERIOD,APOGEE,PERIGEE,DECAYED
51887.0,STARLINK-3551,PAYLOAD,2024-07-06 11:53:28,15.08842519,0.000141,53.2157,222.88,89.8113,270.3041,3.5152e-05,2.72e-06,0.0,0 STARLINK-3551,1 51887U 22022AM  24188.49546412  .00000272  00000-0  35152-4 0  9996,2 51887  53.2157 222.8800 0001410  89.8113 270.3041 15.08842519130972,6917.873,95.437,540.713,538.762,0.0
51887.0,STARLINK-3551,PAYLOAD,2024-07-06 19:50:23,15.08842674,0.000138,53.2158,221.3933,90.5197,269.5954,-2.0368e-06,-3.2e-06,0.0,0 STARLINK-3551,1 51887U 22022AM  24188.82666432 -.00000320  00000-0 -20368-5 0  9998,2 51887  53.2158 221.3933 0001380  90.5197 269.5954 15.08842674131023,6917.872,95.437,540.692,538.783,0.0
51887.0,STARLINK-3551,PAYLOAD,2024-07-07 08:33:28,15.08839539,0.0001385,53.2157,219.0145,88.0802,272.0348,5.7959e-05,6.35e-06,0.0,0 STARLINK-3551,1 51887U 22022AM  24189.35658469  .00000635  00000-0  57959-4 0  9990,2 51887  53.2157 219.0145 0001385  88.0802 272.0348 15.08839539131102,6917.882,95.438,540.705,538.789,0.0
51887.0,STARLINK-3551,PAYLOAD,2024-07-08 05:13:29,15.08836274,0.0001359,53.2157,215.1488,90.3787,269.7361,4.729e-05,4.65e-06,0.0,0 STARLINK-3551,1 51887U 22022AM  24190.21770724  .00000465  00000-0  47290-4 0  9994,2 51887  53.2157 215.1488 0001359  90.3787 269.7361 15.08836274131233,6917.892,95.438,540.697,538.817,0.0
51887.0,STARLINK-3551,PAYLOAD,2024-07-08 06:48:53,15.08836491,0.0001358,53.2157,214.8514,90.2805,269.8343,4.7939e-05,4.75e-06,0.0,0 STARLINK-3551,1 51887U 22022AM  24190.28394717  .00000475  00000-0  47939-4 0  9996,2 51887  53.2157 214.8514 0001358  90.2805 269.8343 15.08836491131241,6917.891,95.438,540.696,538.817,0.0
51887.0,STARLINK-3551,PAYLOAD,2024-07-09 08:15:02,15.08840556,0.0001338,53.2157,210.0943,89.1146,270.9999,7.4876e-05,9.04e-06,0.0,0 STARLINK-3551,1 51887U 22022AM  24191.34378469  .00000904  00000-0  74876-4 0  9997,2 51887  53.2157 210.0943 0001338  89.1146 270.9999 15.08840556131403,6917.879,95.438,540.669,538.818,0.0
51887.0,STARLINK-3551,PAYLOAD,2024-07-09 20:58:08,15.08835663,0.0001333,53.2156,207.7156,88.2137,271.9007,4.215e-05,3.83e-06,0.0,0 STARLINK-3551,1 51887U 22022AM  24191.87370919  .00000383  00000-0  42150-4 0  9998,2 51887  53.2156 207.7156 0001333  88.2137 271.9007 15.08835663131488,6917.894,95.438,540.681,538.836,0.0
51887.0,STARLINK-3551,PAYLOAD,2024-07-10 04:55:04,15.08834849,0.0001325,53.2156,206.2285,87.8592,272.2552,2.8816e-05,1.71e-06,0.0,0 STARLINK-3551,1 51887U 22022AM  24192.20491084  .00000171  00000-0  28816-4 0  9991,2 51887  53.2156 206.2285 0001325  87.8592 272.2552 15.08834849131536,6917.896,95.438,540.678,538.845,0.0
51887.0,STARLINK-3551,PAYLOAD,2024-07-10 08:05:50,15.08835408,0.0001323,53.2156,205.6338,87.9195,272.1948,3.0794e-05,2.02e-06,0.0,0 STARLINK-3551,1 51887U 22022AM  24192.33739067  .00000202  00000-0  30794-4 0  9994,2 51887  53.2156 205.6338 0001323  87.9195 272.1948 15.08835408131558,6917.894,95.438,540.675,538.844,0.0
51887.0,STARLINK-3551,PAYLOAD,2024-07-11 09:32:00,15.08840452,0.0001341,53.2157,200.8758,87.5106,272.604,2.8511e-05,1.66e-06,0.0,0 STARLINK-3551,1 51887U 22022AM  24193.39722897  .00000166  00000-0  28511-4 0  9997,2 51887  53.2157 200.8758 0001341  87.5106 272.6040 15.08840452131711,6917.879,95.438,540.672,538.816,0.0
51887.0,STARLINK-3551,PAYLOAD,2024-07-11 17:28:56,15.08838711,0.0001331,53.2157,199.3889,88.5522,271.5622,4.4937e-05,4.27e-06,0.0,0 STARLINK-3551,1 51887U 22022AM  24193.72842964  .00000427  00000-0  44937-4 0  9992,2 51887  53.2157 199.3889 0001331  88.5522 271.5622 15.08838711131764,6917.884,95.438,540.67,538.829,0.0
51887.0,STARLINK-3551,PAYLOAD,2024-07-12 09:22:47,15.08841313,0.0001348,53.2159,196.4147,88.2829,271.8318,8.1008e-05,1.002e-05,0.0,0 STARLINK-3551,1 51887U 22022AM  24194.39082804  .00001002  00000-0  81008-4 0  9995,2 51887  53.2159 196.4147 0001348  88.2829 271.8318 15.08841313131864,6917.876,95.437,540.674,538.809,0.0
51887.0,STARLINK-3551,PAYLOAD,2024-07-12 17:19:43,15.08837483,0.0001372,53.216,194.9277,84.3197,275.7952,4.9889e-05,5.06e-06,0.0,0 STARLINK-3551,1 51887U 22022AM  24194.72203224  .00000506  00000-0  49889-4 0  9992,2 51887  53.2160 194.9277 0001372  84.3197 275.7952 15.08837483131911,6917.888,95.438,540.702,538.804,0.0
51887.0,STARLINK-3551,PAYLOAD,2024-07-13 04:27:25,15.08836383,0.000139,53.2163,192.8451,86.4638,273.6513,1.6617e-05,-2.3e-07,0.0,0 STARLINK-3551,1 51887U 22022AM  24195.18571504 -.00000023  00000-0  16617-4 0  9990,2 51887  53.2163 192.8451 0001390  86.4638 273.6513 15.08836383131983,6917.891,95.438,540.718,538.795,0.0
51887.0,STARLINK-3551,PAYLOAD,2024-07-13 09:13:35,15.08837788,0.0001377,53.216,191.9537,87.2621,272.8528,2.6187e-05,1.29e-06,0.0,0 STARLINK-3551,1 51887U 22022AM  24195.38443404  .00000129  00000-0  26187-4 0  9998,2 51887  53.2160 191.9537 0001377  87.2621 272.8528 15.08837788132013,6917.887,95.438,540.705,538.8,0.0
51887.0,STARLINK-3551,PAYLOAD,2024-07-13 17:10:30,15.08838695,0.0001379,53.216,190.467,87.2007,272.9143,2.8518e-05,1.66e-06,0.0,0 STARLINK-3551,1 51887U 22022AM  24195.71563393  .00000166  00000-0  28518-4 0  9996,2 51887  53.2160 190.4670 0001379  87.2007 272.9143 15.08838695132062,6917.884,95.438,540.703,538.795,0.0
51887.0,STARLINK-3551,PAYLOAD,2024-07-14 05:53:35,15.08842546,0.0001377,53.216,188.088,87.7807,272.3342,6.2179e-05,7.02e-06,0.0,0 STARLINK-3551,1 51887U 22022AM  24196.24555108  .00000702  00000-0  62179-4 0  9997,2 51887  53.2160 188.0880 0001377  87.7807 272.3342 15.08842546132143,6917.873,95.437,540.69,538.785,0.0
51887.0,STARLINK-3551,PAYLOAD,2024-07-14 20:12:03,15.08840312,0.0001407,53.2159,185.4117,89.5249,270.5904,8.648e-05,1.089e-05,0.0,0 STARLINK-3551,1 51887U 22022AM  24196.84171135  .00001089  00000-0  86480-4 0  9997,2 51887  53.2159 185.4117 0001407  89.5249 270.5904 15.08840312132232,6917.879,95.438,540.718,538.771,0.0
51887.0,STARLINK-3551,PAYLOAD,2024-07-15 08:55:08,15.08846253,0.0001415,53.2159,183.0325,91.0569,269.0585,0.00012993,1.781e-05,0.0,0 STARLINK-3551,1 51887U 22022AM  24197.37162663  .00001781  00000-0  12993-3 0  9998,2 51887  53.2159 183.0325 0001415  91.0569 269.0585 15.08846253132316,6917.861,95.437,540.705,538.747,0.0
51887.0,STARLINK-3551,PAYLOAD,2024-07-15 18:27:27,15.088397,0.0001387,53.2155,181.2492,88.2262,271.8889,5.625e-05,6.07e-06,0.0,0 STARLINK-3551,1 51887U 22022AM  24197.76907214  .00000607  00000-0  56250-4 0  9991,2 51887  53.2155 181.2492 0001387  88.2262 271.8889 15.08839700132376,6917.881,95.438,540.706,538.787,0.0
51887.0,STARLINK-3551,PAYLOAD,2024-07-16 08:45:55,15.08842483,0.0001379,53.2158,178.5726,93.9161,266.1989,4.259e-05,3.9e-06,0.0,0 STARLINK-3551,1 51887U 22022AM  24198.36523072  .00000390  00000-0  42590-4 0  9995,2 51887  53.2158 178.5726 0001379  93.9161 266.1989 15.08842483132460,6917.873,95.437,540.692,538.784,0.0
51887.0,STARLINK-3551,PAYLOAD,2024-07-16 18:18:14,15.08839995,0.000139,53.2157,176.7883,94.8948,265.2203,1.2395e-05,-9.1e-07,0.0,0 STARLINK-3551,1 51887U 22022AM  24198.76267288 -.00000091  00000-0  12395-4 0  9992,2 51887  53.2157 176.7883 0001390  94.8948 265.2203 15.08839995132529,6917.88,95.438,540.707,538.784,0.0
51887.0,STARLINK-3551,PAYLOAD,2024-07-17 05:25:56,15.08844415,0.0001359,53.2158,174.7076,93.6022,266.5126,4.9092e-05,4.94e-06,0.0,0 STARLINK-3551,1 51887U 22022AM  24199.22634923  .00000494  00000-0  49092-4 0  9998,2 51887  53.2158 174.7076 0001359  93.6022 266.5126 15.08844415132595,6917.867,95.437,540.672,538.792,0.0
51887.0,STARLINK-3551,PAYLOAD,2024-07-17 18:09:02,15.08832613,0.0001388,53.2157,172.3296,91.8274,268.2877,2.6394e-05,1.32e-06,0.0,0 STARLINK-3551,1 51887U 22022AM  24199.75627905  .00000132  00000-0  26394-4 0  9997,2 51887  53.2157 172.3296 0001388  91.8274 268.2877 15.08832613132671,6917.903,95.438,540.728,538.808,0.0
51887.0,STARLINK-3551,PAYLOAD,2024-07-18 06:52:07,15.08836237,0.0001249,53.2161,169.9506,95.8653,264.2481,3.0988e-05,2.05e-06,0.0,0 STARLINK-3551,1 51887U 22022AM  24200.28619901  .00000205  00000-0  30988-4 0  9990,2 51887  53.2161 169.9506 0001249  95.8653 264.2481 15.08836237132755,6917.892,95.438,540.621,538.893,0.0
51887.0,STARLINK-3551,PAYLOAD,2024-07-18 16:24:26,15.08835331,0.0001265,53.2164,168.1669,94.591,265.5227,4.1177e-05,3.67e-06,0.0,0 STARLINK-3551,1 51887U 22022AM  24200.68364111  .00000367  00000-0  41177-4 0  9995,2 51887  53.2164 168.1669 0001265  94.5910 265.5227 15.08835331132812,6917.895,95.438,540.635,538.885,0.0
51887.0,STARLINK-3551,PAYLOAD,2024-07-19 05:07:31,15.08839876,0.0001229,53.2161,165.7874,89.4439,270.6694,0.00010214,1.338e-05,0.0,0 STARLINK-3551,1 51887U 22022AM  24201.21356009  .00001338  00000-0  10214-3 0  9998,2 51887  53.2161 165.7874 0001229  89.4439 270.6694 15.08839876132890,6917.881,95.438,540.596,538.896,0.0
51887.0,STARLINK-3551,PAYLOAD,2024-07-19 14:39:50,15.08837177,0.0001189,53.2168,164.0001,85.2764,274.8364,7.4207e-05,8.93e-06,0.0,0 STARLINK-3551,1 51887U 22022AM  24201.61100211  .00000893  00000-0  74207-4 0  9992,2 51887  53.2168 164.0001 0001189  85.2764 274.8364 15.08837177132950,6917.889,95.438,540.577,538.931,0.0
51887.0,STARLINK-3551,PAYLOAD,2024-07-19 16:15:13,15.08835648,0.0001253,53.2158,163.706,95.595,264.5185,7.7578e-05,9.47e-06,0.0,0 STARLINK-3551,1 51887U 22022AM  24201.67724301  .00000947  00000-0  77578-4 0  9994,2 51887  53.2158 163.7060 0001253  95.5950 264.5185 15.08835648132962,6917.894,95.438,540.626,538.892,0.0
51887.0,STARLINK-3551,PAYLOAD,2024-07-20 06:33:41,15.08849685,0.0001155,53.216,161.0285,91.1668,268.9457,0.00018052,2.587e-05,0.0,0 STARLINK-3551,1 51887U 22022AM  24202.27339298  .00002587  00000-0  18052-3 0  9991,2 51887  53.2160 161.0285 0001155  91.1668 268.9457 15.08849685133051,6917.851,95.437,540.515,538.917,0.0
